INTELSAT 36 (IS-36)     
1 41747C 16053A   22180.93497685  .00000065  00000-0  00000-0 0  1805
2 41747   0.0091  17.8844 0002565 331.6346 333.5480  1.00271103    13
INTELSAT 36 (IS-36) [PM]
1 41747C 16053A   22182.30954861  .00000068  00000-0  00000-0 0  1827
2 41747   0.0095 357.5025 0002654 342.4593 119.3060  1.00272504    15
INTELSAT 33E            
1 41748C 16053B   22178.00000000  .00000139  00000-0  00000-0 0  1781
2 41748   0.0122  13.8392 0001827 104.3892 216.8552  1.00274416    17
INTELSAT 33E        [PM]
1 41748C 16053B   22180.35570602  .00000139  00000-0  00000-0 0  1805
2 41748   0.0138  34.2693 0001425  59.8382  11.3510  1.00270616    17
INTELSAT 33E            
1 41748C 16053B   22181.00000000  .00000139  00000-0  00000-0 0  1819
2 41748   0.0140  37.9470 0001451  58.4768 241.6138  1.00270808    12
INTELSAT 33E        [PM]
1 41748C 16053B   22183.86162037  .00000139  00000-0  00000-0 0  1836
2 41748   0.0082   7.8619 0001578  91.0499 192.1265  1.00270922    10
INTELSAT 32E            
1 41945C 17007B   22178.00000000 -.00004337  00000-0  00000-0 0  1785
2 41945   0.0036 309.0999 0000515  21.6508 261.1613  1.00270962    14
INTELSAT 32E        [PM]
1 41945C 17007B   22180.13186343 -.00000178  00000-0  00000-0 0  1809
2 41945   0.0022  23.6275 0000632 276.8811 340.9570  1.00274193    14
INTELSAT 32E            
1 41945C 17007B   22181.00000000 -.00000179  00000-0  00000-0 0  1813
2 41945   0.0106  59.6205 0000399 240.9722 294.2622  1.00270593    11
INTELSAT 35E            
1 42818C 17041A   22178.00000000 -.00000148  00000-0  00000-0 0  1789
2 42818   0.0144 303.3166 0001308 151.1836 146.0762  1.00270702    19
INTELSAT 35E        [PM]
1 42818C 17041A   22180.84283565 -.00000165  00000-0  00000-0 0  1805
2 42818   0.0481 199.1704 0001484 252.0842  95.5431  1.00274340    18
INTELSAT 35E            
1 42818C 17041A   22181.00000000 -.00000143  00000-0  00000-0 0  1812
2 42818   0.0001   8.8793 0001479  82.2724 152.3815  1.00274349    13
INTELSAT 37E            
1 42950C 17059A   22178.00000000 -.00000048  00000-0  00000-0 0  1784
2 42950   0.0081  51.0771 0002375  47.8845 158.1097  1.00271059    12
INTELSAT 37E            
1 42950C 17059A   22181.00000000 -.00000051  00000-0  00000-0 0  1816
2 42950   0.0201  82.8115 0002196  14.9633 162.2576  1.00273621    16
INTELSAT 37E        [PM]
1 42950C 17059A   22186.07430556 -.00000051  00000-0  00000-0 0  1866
2 42950   0.0114  91.6772 0002486  11.5776 188.5564  1.00271591    11
AZERSPACE 2 (IS-38)     
1 43632C 18074A   22178.00000000  .00000231  00000-0  00000-0 0  1783
2 43632   0.0026  18.4844 0001121  80.0552 221.6565  1.00270887    13
AZERSPACE 2 (IS-38)     
1 43632C 18074A   22180.93497685  .00000229  00000-0  00000-0 0  1807
2 43632   0.0079  54.2742 0001099  52.9317 192.4757  1.00271827    10
HORIZONS-3E             
1 43633C 18074B   22178.00000000  .00000023  00000-0  00000-0 0  1783
2 43633   0.0257 158.3879 0001813 155.0301 130.6544  1.00268885    16
HORIZONS-3E             
1 43633C 18074B   22180.93497685  .00000057  00000-0  00000-0 0  1807
2 43633   0.0130 121.3975 0001863 191.0834 111.0842  1.00267936    19
INTELSAT 39 (IS-39)     
1 44476C 19049B   22178.00000000  .00000076  00000-0  00000-0 0  1780
2 44476   0.0019   2.7313 0000708 300.6899  33.6087  1.00271335    13
INTELSAT 39 (IS-39) [PM]
1 44476C 19049B   22180.90938657  .00000099  00000-0  00000-0 0  1808
2 44476   0.0000   0.1115 0000767 299.7592   7.4042  1.00272373    11
INTELSAT 39 (IS-39)     
1 44476C 19049B   22180.93497685  .00000105  00000-0  00000-0 0  1800
2 44476   0.0001  18.8239 0000764 285.5926  12.0954  1.00271298    15
GALAXY 30 (G-30)        
1 46114C 20056C   22178.00000000  .00000127  00000-0  00000-0 0  1788
2 46114   0.0131  56.5475 0001551  32.0525  61.4868  1.00269909    14
GALAXY 30 (G-30)        
1 46114C 20056C   22181.00000000  .00000105  00000-0  00000-0 0  1812
2 46114   0.0001  25.1395 0001479  58.6714  69.2161  1.00270792    10
GALAXY 30 (G-30)    [PM]
1 46114C 20056C   22185.50347222  .00000106  00000-0  00000-0 0  1856
2 46114   0.0060  74.0476 0001757  17.5436 247.1213  1.00272224    19
